{
    "links": {
        "self": "http://www.neowsapp.com/rest/v1/neo/3373977?api_key=iIulBulltgU6a56xZRHN4H3l9WmuAYTsLGpBGhQ2"
    },
    "id": "3373977",
    "neo_reference_id": "3373977",
    "name": "(2007 GY5)",
    "designation": "2007 GY5",
    "nasa_jpl_url": "http://ssd.jpl.nasa.gov/sbdb.cgi?sstr=3373977",
    "absolute_magnitude_h": 24.0,
    "estimated_diameter": {
        "kilometers": {
            "estimated_diameter_min": 0.0421264611,
            "estimated_diameter_max": 0.0941976306
        },
        "meters": {
            "estimated_diameter_min": 42.1264610556,
            "estimated_diameter_max": 94.1976305719
        },
        "miles": {
            "estimated_diameter_min": 0.0261761612,
            "estimated_diameter_max": 0.0585316759
        },
        "feet": {
            "estimated_diameter_min": 138.2101784897,
            "estimated_diameter_max": 309.0473542854
        }
    },
    "is_potentially_hazardous_asteroid": false,
    "close_approach_data": [
        {
            "close_approach_date": "2007-04-24",
            "close_approach_date_full": "2007-Apr-24 13:45",
            "epoch_date_close_approach": 1177422300000,
            "relative_velocity": {
                "kilometers_per_second": "15.3103151379",
                "kilometers_per_hour": "55117.1344965246",
                "miles_per_hour": "34247.6439320211"
            },
            "miss_distance": {
                "astronomical": "0.0898785826",
                "lunar": "34.9627686314",
                "kilometers": "13445644.515579062",
                "miles": "8354736.0877205756"
            },
            "orbiting_body": "Earth"
        },
        {
            "close_approach_date": "2007-09-30",
            "close_approach_date_full": "2007-Sep-30 16:23",
            "epoch_date_close_approach": 1191169380000,
            "relative_velocity": {
                "kilometers_per_second": "13.0015668611",
                "kilometers_per_hour": "46805.6407001108",
                "miles_per_hour": "29083.2049116883"
            },
            "miss_distance": {
                "astronomical": "0.4544988083",
                "lunar": "176.8000364287",
                "kilometers": "67992053.639218321",
                "miles": "42248303.0515659898"
            },
            "orbiting_body": "Earth"
        }
    ],
    "orbital_data": {
        "orbit_id": "8",
        "orbit_determination_date": "2017-04-06 09:06:33",
        "first_observation_date": "2007-04-15",
        "last_observation_date": "2007-04-18",
        "data_arc_in_days": 3,
        "observations_used": 25,
        "orbit_uncertainty": "9",
        "minimum_orbit_intersection": ".0748375",
        "jupiter_tisserand_invariant": "4.388",
        "epoch_osculation": "2454206.5",
        "eccentricity": ".3890036100736205",
        "semi_major_axis": "1.490413210386786",
        "inclination": "24.54190837937207",
        "ascending_node_longitude": "26.48142006092099",
        "orbital_period": "664.5971335843326",
        "perihelion_distance": ".9106370910449121",
        "perihelion_argument": "247.1674137250811",
        "aphelion_distance": "2.070189329728661",
        "perihelion_time": "2454267.033133427808",
        "mean_anomaly": "327.2103189544593",
        "mean_motion": ".5416815418062868",
        "equinox": "J2000",
        "orbit_class": {
            "orbit_class_type": "APO",
            "orbit_class_description": "Near-Earth asteroid orbits which cross the Earth’s orbit similar to that of 1862 Apollo",
            "orbit_class_range": "a (semi-major axis) > 1.0 AU; q (perihelion) < 1.017 AU"
        }
    },
    "is_sentry_object": false
}